[{"OBJECT_NAME":"CARTOSAT-2B","OBJECT_ID":"2010-035A","EPOCH":"2026-03-09T09:22:05.678400","MEAN_MOTION":14.78772269,"ECCENTRICITY":0.00124689,"INCLINATION":97.8747,"RA_OF_ASC_NODE":119.6773,"ARG_OF_PERICENTER":150.1325,"MEAN_ANOMALY":210.06,"EPHEMERIS_TYPE":0,"CLASSIFICATION_TYPE":"U","NORAD_CAT_ID":36795,"ELEMENT_SET_NO":999,"REV_AT_EPOCH":84510,"BSTAR":0.0001830405,"MEAN_MOTION_DOT":1.295e-5,"MEAN_MOTION_DDOT":0},{"OBJECT_NAME":"KUIPER-00076","OBJECT_ID":"2025-151H","EPOCH":"2026-03-09T19:47:59.739936","MEAN_MOTION":14.80522013,"ECCENTRICITY":7.688e-5,"INCLINATION":51.9006,"RA_OF_ASC_NODE":292.379,"ARG_OF_PERICENTER":25.0802,"MEAN_ANOMALY":335.0198,"EPHEMERIS_TYPE":0,"CLASSIFICATION_TYPE":"U","NORAD_CAT_ID":64823,"ELEMENT_SET_NO":999,"REV_AT_EPOCH":3543,"BSTAR":0.00061277235,"MEAN_MOTION_DOT":4.518e-5,"MEAN_MOTION_DDOT":0}]
