CARTOSAT-2B             
1 36795U 10035A   26068.39034350  .00001295  00000+0  18304-3 0  9993
2 36795  97.8747 119.6773 0012468 150.1325 210.0600 14.78772269845106
KUIPER-00076            
1 64823U 25151H   26068.82499699  .00004518  00000+0  61277-3 0  9998
2 64823  51.9006 292.3790 0000769  25.0802 335.0198 14.80522013 35437
